[{"OBJECT_NAME":"THEOS","OBJECT_ID":"2008-049A","EPOCH":"2026-03-09T23:28:13.334304","MEAN_MOTION":14.20116597,"ECCENTRICITY":0.00010425,"INCLINATION":98.5696,"RA_OF_ASC_NODE":129.4305,"ARG_OF_PERICENTER":90.3146,"MEAN_ANOMALY":269.8151,"EPHEMERIS_TYPE":0,"CLASSIFICATION_TYPE":"U","NORAD_CAT_ID":33396,"ELEMENT_SET_NO":999,"REV_AT_EPOCH":90388,"BSTAR":-7.5504934e-5,"MEAN_MOTION_DOT":-2.03e-6,"MEAN_MOTION_DDOT":0},{"OBJECT_NAME":"NOAA 16 DEB","OBJECT_ID":"2000-055MM","EPOCH":"2026-03-04T06:03:53.403552","MEAN_MOTION":14.17732833,"ECCENTRICITY":0.00514666,"INCLINATION":98.7401,"RA_OF_ASC_NODE":65.8335,"ARG_OF_PERICENTER":225.0961,"MEAN_ANOMALY":134.6031,"EPHEMERIS_TYPE":0,"CLASSIFICATION_TYPE":"U","NORAD_CAT_ID":41513,"ELEMENT_SET_NO":999,"REV_AT_EPOCH":51000,"BSTAR":0.0032664845,"MEAN_MOTION_DOT":6.704e-5,"MEAN_MOTION_DDOT":0}]
